OBJECT_NAME,OBJECT_ID,EPOCH,MEAN_MOTION,ECCENTRICITY,INCLINATION,RA_OF_ASC_NODE,ARG_OF_PERICENTER,MEAN_ANOMALY,EPHEMERIS_TYPE,CLASSIFICATION_TYPE,NORAD_CAT_ID,ELEMENT_SET_NO,REV_AT_EPOCH,BSTAR,MEAN_MOTION_DOT,MEAN_MOTION_DDOT
BEIDOU-3S IGSO-1S (C31),2015-019A,2026-06-14T20:12:21.455136,1.00250661,.00391338,49.1999,295.4904,191.2000,171.1730,0,U,40549,999,4105,0,-.179E-5,0
GPS BIIF-10 (PRN 08),2015-033A,2026-06-14T17:28:24.334752,2.00556296,.01150731,53.9843,267.1880,30.2246,330.4667,0,U,40730,999,7994,0,-.15E-6,0
BEIDOU-3S M2S (C58),2015-037A,2026-06-14T02:26:20.819040,1.86232117,.00082261,54.8742,302.1534,259.7904,100.0986,0,U,40748,999,7406,0,-.69E-6,0
BEIDOU-3S M1S (C57),2015-037B,2026-06-14T20:18:39.815424,1.86254748,.000347,54.8696,302.1146,61.6956,298.3222,0,U,40749,999,7408,0,-.69E-6,0
GSAT0205 (GALILEO 9),2015-045A,2026-05-24T07:17:44.873376,1.67409242,.00064058,54.9357,222.4171,263.0112,96.9692,0,U,40889,999,6656,0,-.14E-6,0
GSAT0206 (GALILEO 10),2015-045B,2026-06-13T08:25:46.280640,1.70473791,.00016978,54.9458,221.7104,337.4891,22.6033,0,U,40890,999,6697,0,.61E-6,0
BEIDOU-3S IGSO-2S (C56),2015-053A,2026-06-14T19:46:42.792960,1.00259392,.00657166,49.2253,258.8113,192.1261,204.1557,0,U,40938,999,3933,0,-.131E-5,0
GPS BIIF-11 (PRN 10),2015-062A,2026-06-14T18:49:20.750880,2.00566892,.01118538,56.9578,30.9038,231.0810,127.9739,0,U,41019,999,7778,0,-.64E-6,0
GSAT-15 (GAGAN/PRN 139),2015-065A,2026-06-15T08:22:24.202272,1.00270843,.0004058,0.0749,265.5559,161.7787,55.3896,0,U,41028,999,3878,0,-.254E-5,0
GSAT0209 (GALILEO 12),2015-079A,2026-06-14T16:37:03.198432,1.70473698,.00053337,55.8259,101.3304,342.7065,17.2319,0,U,41174,999,6473,0,-.11E-6,0
GSAT0208 (GALILEO 11),2015-079B,2026-06-14T07:49:36.507936,1.70473576,.00048621,55.8243,101.3373,343.1705,16.7693,0,U,41175,999,6514,0,-.1E-6,0
IRNSS-1E,2016-003A,2026-06-14T15:36:21.763296,1.00279169,.0023517,33.2222,59.7855,150.0031,38.8029,0,U,41241,999,3805,0,-.32E-5,0
GPS BIIF-12 (PRN 32),2016-007A,2026-06-10T21:16:03.932832,2.00551966,.00960515,55.5202,89.7095,247.3753,111.5952,0,U,41328,999,7571,0,-.12E-6,0
COSMOS 2514 (751),2016-008A,2026-06-14T22:31:57.205056,2.13102554,.0011202,65.0231,313.0836,197.8600,162.0843,0,U,41330,999,8057,0,-.54E-6,0
BEIDOU-2 IGSO-6 (C13),2016-021A,2026-06-14T15:02:21.911136,1.00259627,.0057107,60.2220,38.0652,231.4956,311.9910,0,U,41434,999,3745,0,-.152E-5,0
IRNSS-1G,2016-027A,2026-06-15T09:21:51.876000,1.00266956,.0007532,5.1936,97.5143,354.5335,81.6101,0,U,41469,999,3716,0,-.335E-5,0
GSAT0211 (GALILEO 14),2016-030A,2026-06-14T10:48:10.446624,1.70473900,.0002887,55.0959,221.7703,323.8922,36.1904,0,U,41549,999,6262,0,.59E-6,0
GSAT0210 (GALILEO 13),2016-030B,2026-06-14T16:58:37.998336,1.70473923,.0004649,55.0955,221.7612,244.9793,115.0745,0,U,41550,999,6262,0,.58E-6,0
BEIDOU-2 G7 (C03),2016-037A,2026-06-15T11:52:18.820992,1.00264421,.0006754,1.7149,69.2959,4.0698,118.9052,0,U,41586,999,687,0,-.351E-5,0
EUTELSAT 117 WEST B (WAAS/PRN 131),2016-038B,2026-06-15T00:23:38.718240,1.00269365,.00004473,0.0044,166.0114,257.2085,88.9985,0,U,41589,999,3664,0,-.6E-7,0
GSAT0207 (GALILEO 15),2016-069A,2026-06-13T05:25:15.549024,1.70473583,.000534,55.4965,101.1958,329.2109,30.7143,0,U,41859,999,5933,0,-.5E-7,0
GSAT0212 (GALILEO 16),2016-069B,2026-06-14T06:03:34.358400,1.70473713,.00046425,55.4947,101.1626,358.3825,1.5720,0,U,41860,999,5960,0,-.11E-6,0
GSAT0213 (GALILEO 17),2016-069C,2026-06-15T04:57:04.571424,1.70474116,.0004959,55.4975,101.1440,312.6320,47.2844,0,U,41861,999,5948,0,-.13E-6,0
GSAT0214 (GALILEO 18),2016-069D,2026-06-14T04:18:14.499936,1.70473798,.0004255,55.4956,101.1651,319.5735,40.3509,0,U,41862,999,5959,0,-.1E-6,0
SES-15 (WAAS/PRN 133),2017-026A,2026-06-15T11:30:38.824128,1.00268059,.0000442,0.0208,331.5252,57.0607,278.6666,0,U,42709,999,741,0,.63E-6,0
QZS-2 (QZSS/PRN 194),2017-028A,2026-06-15T12:28:38.731008,1.00284423,.0760514,39.4302,243.1796,269.2356,80.1810,0,U,42738,999,760,0,-.144E-5,0
QZS-3 (QZSS/PRN 199),2017-048A,2026-06-15T09:44:38.601312,1.00263567,.0002441,0.0286,151.4721,301.5367,83.7722,0,U,42917,999,3224,0,0,0
COSMOS 2522 (752),2017-055A,2026-06-13T08:51:13.499136,2.13101904,.0010818,64.0787,192.0144,240.5111,119.4561,0,U,42939,999,6789,0,.114E-5,0
QZS-4 (QZSS/PRN 195),2017-062A,2026-06-15T08:32:30.732000,1.00250711,.0745224,40.1089,343.5053,271.7370,273.6485,0,U,42965,999,3178,0,-.342E-5,0
BEIDOU-3 M1 (C19),2017-069A,2026-06-13T08:59:02.379840,1.86231168,.0010559,56.6884,63.2107,324.8482,35.1090,0,U,43001,999,5853,0,-.55E-6,0
BEIDOU-3 M2 (C20),2017-069B,2026-06-12T18:37:35.969664,1.86230859,.00092204,56.6872,63.2666,350.0125,9.9939,0,U,43002,999,5851,0,-.55E-6,0
